LAOSAT 1                
1 41034U 15067A   26178.04752683 -.00000331  00000+0  00000+0 0  9996
2 41034   0.0514 212.6855 0002627 198.5678   9.5284  1.00271412 38955
TELSTAR 12V             
1 41036U 15068A   26178.16168248 -.00000108  00000+0  00000+0 0  9992
2 41036   0.0189 336.7087 0002534 113.9005 227.8784  1.00269832 38720
ELEKTRO-L 2             
1 41105U 15074A   26176.94987031 -.00000113  00000+0  00000+0 0  9995
2 41105   6.7170  70.4166 0000727 286.6211 244.4527  1.00271163 38594
COSMOS 2513             
1 41121U 15075A   26177.32477655 -.00000127  00000+0  00000+0 0  9998
2 41121   0.0753 102.3543 0003503 334.7437  34.5259  1.00270544 38648
EXPRESS-AMU1            
1 41191U 15082A   26178.17182252  .00000167  00000+0  00000+0 0  9996
2 41191   0.0124  51.1735 0002992  45.4720 276.5715  1.00272353 38367
GAOFEN-4                
1 41194U 15083A   26176.90227766 -.00000324  00000+0  00000+0 0  9995
2 41194   0.3805  83.9226 0004051 113.8387 146.7998  1.00271078 38616
BELINTERSAT-1           
1 41238U 16001A   26178.17485588  .00000119  00000+0  00000+0 0  9995
2 41238   0.0028  93.8210 0001732 340.6058 315.3004  1.00270964 38334
IRNSS-1E                
1 41241U 16003A   26176.59836588 -.00000319  00000+0  00000+0 0  9998
2 41241  33.2517  59.6282 0019062 179.1130   2.2203  1.00274592 38164
EUTELSAT 9B             
1 41310U 16005A   26178.16644917  .00000073  00000+0  00000+0 0  9991
2 41310   0.0465  63.7257 0001773   2.8143 277.6626  1.00270201 38215
SES-9                   
1 41380U 16013A   26178.04354014 -.00000333  00000+0  00000+0 0  9990
2 41380   0.0136 327.2987 0002537 117.6680 314.1654  1.00269496 37531
EUTELSAT 65 WEST A      
1 41382U 16014A   26178.18447568 -.00000265  00000+0  00000+0 0  9999
2 41382   0.0464 356.5132 0002759  96.8218 183.1817  1.00271561 37626
IRNSS-1F                
1 41384U 16015A   26177.95723145  .00000164  00000+0  00000+0 0  9991
2 41384   5.3728  96.5595 0017444 184.3952  11.1263  1.00272507 37769
BEIDOU-2 IGSO-6         
1 41434U 16021A   26177.11016981 -.00000145  00000+0  00000+0 0  9995
2 41434  60.2385  37.9495 0057558 231.0163 137.2672  1.00258926 37578
IRNSS-1G                
1 41469U 16027A   26177.84157144 -.00000327  00000+0  00000+0 0  9998
2 41469   5.2185  97.2514 0005784   4.3323 245.6773  1.00282495 37278
JCSAT-2B                
1 41471U 16028A   26178.13655910 -.00000154  00000+0  00000+0 0  9997
2 41471   0.0036  85.4080 0001290  13.4226  19.5866  1.00271660 37236
THAICOM 8               
1 41552U 16031A   26178.18022924 -.00000110  00000+0  00000+0 0  9991
2 41552   0.0726  48.2454 0003825  18.4607 351.9596  1.00272227 36814
INTELSAT 31 (IS-31)     
1 41581U 16035A   26178.14570720 -.00000139  00000+0  00000+0 0  9996
2 41581   0.0144 287.9612 0000598 337.3395 327.3625  1.00271659 36783
BEIDOU-2 G7             
1 41586U 16037A   26178.11521071 -.00000343  00000+0  00000+0 0  9992
2 41586   1.7449  69.4127 0006846   1.5210 356.3270  1.00272312  6980
ABS-2A (MONGOLSAT-1)    
1 41588U 16038A   26178.10819066  .00000000  00000+0  00000+0 0  9997
2 41588   0.0262   6.4067 0001746  35.6984 346.8174  1.00267072 36809
EUTELSAT 117 WEST B     
1 41589U 16038B   26178.07020867  .00000000  00000+0  00000+0 0  9997
2 41589   0.0096 147.4865 0000451 108.1501 287.8476  1.00274127 36763
BRISAT                  
1 41591U 16039A   26178.15878359 -.00000184  00000+0  00000+0 0  9991
2 41591   0.0191 325.5043 0002123 125.5768  31.8459  1.00273599 36710
ECHOSTAR 18             
1 41592U 16039B   26178.17892080  .00000000  00000+0  00000+0 0  9997
2 41592   0.0281  21.2244 0001807  78.6813 178.4315  1.00268438 36727
MUOS-5                  
1 41622U 16041A   26178.14406051 -.00000133  00000+0  00000+0 0  9998
2 41622   2.1820 301.8504 0198017 260.6014  19.4805  1.00273351 37184
TIANTONG-1 1            
1 41725U 16048A   26178.11347736 -.00000309  00000+0  00000+0 0  9995
2 41725   3.8680  43.5006 0005922  49.3638 324.6397  1.00271076 36372
JCSAT-16                
1 41729U 16050A   26177.90803286 -.00000240  00000+0  00000+0 0  9999
2 41729   0.0179  14.0448 0001301  89.4455 282.3758  1.00271139 36168
USA 270                 
1 41744U 16052A   26176.62624484 -.00000284  00000+0  00000+0 0  9995
2 41744   4.2178  77.0981 0000668 157.1810  56.2495  0.99500516 28218
USA 271                 
1 41745U 16052B   26176.75914149 -.00000236  00000+0  00000+0 0  9997
2 41745   4.1909  77.1447 0001955 290.7679 281.9940  0.99833204 28007
INTELSAT 36 (IS-36)     
1 41747U 16053A   26177.84712437 -.00000012  00000+0  00000+0 0  9999
2 41747   0.0108  13.4633 0001739 328.7334 306.2396  1.00266822 36054
INSAT-3DR               
1 41752U 16054A   26178.10801734 -.00000065  00000+0  00000+0 0  9993
2 41752   0.1309  86.1866 0010053 186.7850 115.1092  1.00272424 35912
GSAT-18                 
1 41793U 16060A   26178.03669345 -.00000065  00000+0  00000+0 0  9997
2 41793   0.0825  93.4782 0005827 344.7424 284.1158  1.00272227 35622
SKY MUSTER 2 (NBN1B)    
1 41794U 16060B   26178.19315774 -.00000233  00000+0  00000+0 0  9996
2 41794   0.0190 334.6777 0001746 114.5682  40.4013  1.00271058 35621
HIMAWARI-9              
1 41836U 16064A   26177.97863821 -.00000263  00000+0  00000+0 0  9996
2 41836   0.0171  44.9539 0001158  68.4076 294.8031  1.00271011 35304
